ORBCOMM FM05            
1 25117U 97084F   24281.33576663  .00008580  00000+0  25286-2 0  9995
2 25117  45.0128 140.4780 0002206  48.8911 311.2130 14.43927887404038
ORBCOMM FM06            
1 25118U 97084G   24281.56922240  .00008232  00000+0  24216-2 0  9993
2 25118  45.0124 139.4163 0001557  74.3571 321.8266 14.44056399404985
ORBCOMM FM07            
1 25119U 97084H   24281.56376660  .00008118  00000+0  23940-2 0  9999
2 25119  45.0118 140.0878 0002695  37.1012 323.0025 14.43948987404979
ORBCOMM FM03            
1 25158U 98007B   24281.44374858  .00006658  00000+0  24407-2 0  9998
2 25158 107.9691 336.8554 0047315 327.9290  31.8973 14.33043486387951
ORBCOMM FM04            
1 25159U 98007C   24281.54384756  .00005419  00000+0  19893-2 0  9995
2 25159 107.9673 340.1035 0042993 325.0652  34.7669 14.33311739388002
ORBCOMM FM17            
1 25413U 98046A   24281.54344969  .00004465  00000+0  16375-2 0  9995
2 25413  44.9959   9.0169 0001269 318.9391  41.1360 14.33889332366895
ORBCOMM FM18            
1 25414U 98046B   24281.51573448  .00007130  00000+0  24328-2 0  9998
2 25414  44.9930 292.9254 0002217  65.3512 294.7566 14.36907061367882
ORBCOMM FM19            
1 25415U 98046C   24281.52536382  .00007156  00000+0  24497-2 0  9991
2 25415  44.9941 294.4965 0001489  31.4347 103.3872 14.36739226367848
